[{"OBJECT_NAME":"STARLINK-30583","OBJECT_ID":"2023-160M","EPOCH":"2026-03-09T22:00:01.999584","MEAN_MOTION":15.05223123,"ECCENTRICITY":0.00027093,"INCLINATION":43.0008,"RA_OF_ASC_NODE":78.922,"ARG_OF_PERICENTER":252.6944,"MEAN_ANOMALY":90.9351,"EPHEMERIS_TYPE":0,"CLASSIFICATION_TYPE":"U","NORAD_CAT_ID":58086,"ELEMENT_SET_NO":999,"REV_AT_EPOCH":572,"BSTAR":0.12251835,"MEAN_MOTION_DOT":0.01943655,"MEAN_MOTION_DDOT":0},{"OBJECT_NAME":"JIELONG-3 R\/B","OBJECT_ID":"2023-190C","EPOCH":"2026-03-09T21:26:26.113920","MEAN_MOTION":15.18151254,"ECCENTRICITY":0.02497151,"INCLINATION":86.5597,"RA_OF_ASC_NODE":295.7177,"ARG_OF_PERICENTER":271.8036,"MEAN_ANOMALY":85.4623,"EPHEMERIS_TYPE":0,"CLASSIFICATION_TYPE":"U","NORAD_CAT_ID":58507,"ELEMENT_SET_NO":999,"REV_AT_EPOCH":12333,"BSTAR":0.00045620602,"MEAN_MOTION_DOT":0.00021606,"MEAN_MOTION_DDOT":0}]
